KUZGTU 1 (RS47S)        
1 57217U 23091AV  26170.58496566  .00009280  00000+0  32240-3 0  9994
2 57217  97.5059 235.0894 0012259  90.6815 269.5830 15.29905552164746
SONATE-2                
1 59112U 24043Q   26170.38513632  .00035474  00000+0  45828-3 0  9990
2 59112  97.5537 320.9158 0007143 188.0523 172.0619 15.58855561128237
MESAT1                  
1 60209U 24125G   26170.09059365  .00048291  00000+0  52285-3 0  9992
2 60209  97.2284  27.6161 0009751 196.5946 163.4996 15.63376817109865
OOV-CUBE (TUBSAT-30)    
1 60240U 24128F   26170.58394809  .00001296  00000+0  11023-3 0  9998
2 60240  61.9930 217.2156 0044338 134.2886 226.1856 15.02780984106472
COLIBRI-S (RS67S)       
1 61746U 24199M   26170.58323997  .00017547  00000+0  33928-3 0  9992
2 61746  97.2987  44.4588 0006281 266.9848  93.0683 15.47805620137784
HORS 3 (RS81S)          
1 61753U 24199U   26170.59912012  .00029824  00000+0  44341-3 0  9995
2 61753  97.2969  46.4878 0003789 263.8283  96.2540 15.55113820137932
HORS 4 (RS82S)          
1 61754U 24199V   26170.61655775  .00041551  00000+0  51640-3 0  9990
2 61754  97.2913  47.7226 0003315 243.1713 116.9205 15.59871860138025
SIT-2086                
1 61764U 24199AF  26170.58029610  .00031622  00000+0  50315-3 0  9996
2 61764  97.2927  46.9366 0004809 238.6103 121.4680 15.53225420134807
HYPERVIEW 1G (RS66S)    
1 61772U 24199AP  26170.60221583  .00124061  00000+0  77739-3 0  9990
2 61772  97.2864  50.4438 0004395 210.0886 150.0128 15.76424674135058
ALTAIR (RS65S)          
1 61779U 24199AW  26170.58589766  .00006658  00000+0  18558-3 0  9999
2 61779  97.3023  39.9206 0010944 301.4485  58.5689 15.37052580137488
ASRTU-1 (AO-123)        
1 61781U 24199AY  26170.57590154  .00006250  00000+0  18194-3 0  9998
2 61781  97.2994  39.2247 0012131 304.4970  55.5127 15.35704476134293
SAMSAT-IONOSPHERE (RS7*)
1 61784U 24199BB  26170.56475877  .00039178  00000+0  52626-3 0  9997
2 61784  97.2935  46.5080 0005950 264.2850  95.7728 15.57800867137930
RTU MIREA 1 (RS51S)     
1 61785U 24199BC  26170.58387021  .00049840  00000+0  58530-3 0  9990
2 61785  97.2924  47.3715 0005676 254.9401 105.1229 15.61308650134843
TEVEL2-4                
1 63213U 25052D   26170.46433551  .00016248  00000+0  48520-3 0  9998
2 63213  97.3895  66.8595 0004960  98.8525 261.3280 15.34677450 70464
TEVEL2-5                
1 63214U 25052E   26170.22425263  .00015567  00000+0  46766-3 0  9997
2 63214  97.3892  66.5660 0004878 100.7080 259.4713 15.34496992 70424
TEVEL2-6                
1 63215U 25052F   26170.43226522  .00015632  00000+0  47004-3 0  9997
2 63215  97.3899  66.7589 0004756 100.9120 259.2659 15.34467425 70455
TEVEL2-1                
1 63217U 25052H   26170.46207351  .00015291  00000+0  46770-3 0  9991
2 63217  97.3871  66.4107 0004865 109.0223 251.1547 15.33930416 70445
TEVEL2-3                
1 63218U 25052J   26170.45663409  .00015541  00000+0  47448-3 0  9992
2 63218  97.3873  66.4272 0004834 109.5080 250.6686 15.33986782 70448
TEVEL2-2                
1 63219U 25052K   26170.46237399  .00015690  00000+0  47967-3 0  9990
2 63219  97.3874  66.4133 0004815 109.7646 250.4117 15.33940234 70444
TEVEL2-9                
1 63237U 25052AD  26170.44273715  .00013964  00000+0  45436-3 0  9991
2 63237  97.3933  65.7639 0007975 124.5542 235.6454 15.31954874 70377
TEVEL2-7                
1 63238U 25052AE  26170.22275497  .00013282  00000+0  43640-3 0  9995
2 63238  97.3935  65.4597 0008026 125.5065 234.6926 15.31652594 70332
TEVEL2-8                
1 63239U 25052AF  26170.42702275  .00012631  00000+0  41531-3 0  9991
2 63239  97.3936  65.6402 0008057 125.3451 234.8545 15.31641288 70362
INNOSAT 16 (RS92S7)     
1 64878U 25155C   26170.56028270  .00004480  00000+0  17963-3 0  9991
2 64878  97.4567 137.6803 0010824 167.3375 192.8137 15.25476934 81037
GEOSCAN 6 (RS92S6)      
1 64879U 25155D   26170.53576940  .00008348  00000+0  28812-3 0  9993
2 64879  97.4561 139.0966 0008653 154.8876 205.2787 15.30187995 81124
GEOSCAN 1 (RS92S1)      
1 64880U 25155E   26170.53730405  .00009104  00000+0  30822-3 0  9998
2 64880  97.4557 139.2482 0008606 154.6635 205.5030 15.30786082 81132
239ALFEROV (RS61S)      
1 64881U 25155F   26170.56885422  .00011470  00000+0  36187-3 0  9991
2 64881  97.4558 139.8492 0008326 151.8107 208.3587 15.32992745 81172
GEOSCAN 2 (RS92S2)      
1 64890U 25155Q   26170.59592879  .00008836  00000+0  29676-3 0  9992
2 64890  97.4556 139.4606 0008362 142.3449 217.8379 15.31058123 81151
GEOSCAN 5 (RS92S5)      
1 64891U 25155R   26170.55738660  .00011355  00000+0  35487-3 0  9996
2 64891  97.4550 139.9761 0007067 155.3977 204.7604 15.33309095 81182
GEOSCAN 4 (RS92S4)      
1 64892U 25155S   26170.54134039  .00011972  00000+0  37217-3 0  9994
2 64892  97.4554 140.0090 0007128 155.0002 205.1587 15.33464003 81185
GEOSCAN 3 (RS92S3)      
1 64893U 25155T   26170.53904705  .00014143  00000+0  41229-3 0  9990
2 64893  97.4542 140.4433 0007084 153.3834 206.7775 15.35459525 81218
