OBJECT_NAME,OBJECT_ID,EPOCH,MEAN_MOTION,ECCENTRICITY,INCLINATION,RA_OF_ASC_NODE,ARG_OF_PERICENTER,MEAN_ANOMALY,EPHEMERIS_TYPE,CLASSIFICATION_TYPE,NORAD_CAT_ID,ELEMENT_SET_NO,REV_AT_EPOCH,BSTAR,MEAN_MOTION_DOT,MEAN_MOTION_DDOT
KUZGTU 1 (RS47S),2023-091AV,2026-06-19T14:02:21.033024,15.29905552,.00122599,97.5059,235.0894,90.6815,269.5830,0,U,57217,999,16474,.32240291E-3,.928E-4,0
SONATE-2,2024-043Q,2026-06-19T09:14:35.778048,15.58855561,.00071433,97.5537,320.9158,188.0523,172.0619,0,U,59112,999,12823,.45828294E-3,.35474E-3,0
MESAT1,2024-125G,2026-06-19T02:10:27.291360,15.63376817,.00097514,97.2284,27.6161,196.5946,163.4996,0,U,60209,999,10986,.52285319E-3,.48291E-3,0
OOV-CUBE (TUBSAT-30),2024-128F,2026-06-19T14:00:53.114976,15.02780984,.00443389,61.9930,217.2156,134.2886,226.1856,0,U,60240,999,10647,.11022768E-3,.1296E-4,0
COLIBRI-S (RS67S),2024-199M,2026-06-19T13:59:51.933408,15.47805620,.00062814,97.2987,44.4588,266.9848,93.0683,0,U,61746,999,13778,.3392828E-3,.17547E-3,0
HORS 3 (RS81S),2024-199U,2026-06-19T14:22:43.978368,15.55113820,.00037898,97.2969,46.4878,263.8283,96.2540,0,U,61753,999,13793,.44341469E-3,.29824E-3,0
HORS 4 (RS82S),2024-199V,2026-06-19T14:47:50.589600,15.59871860,.00033158,97.2913,47.7226,243.1713,116.9205,0,U,61754,999,13802,.51640337E-3,.41551E-3,0
SIT-2086,2024-199AF,2026-06-19T13:55:37.583040,15.53225420,.00048094,97.2927,46.9366,238.6103,121.4680,0,U,61764,999,13480,.50314921E-3,.31622E-3,0
HYPERVIEW 1G (RS66S),2024-199AP,2026-06-19T14:27:11.447712,15.76424674,.00043955,97.2864,50.4438,210.0886,150.0128,0,U,61772,999,13505,.77738729E-3,.124061E-2,0
ALTAIR (RS65S),2024-199AW,2026-06-19T14:03:41.557824,15.37052580,.00109445,97.3023,39.9206,301.4485,58.5689,0,U,61779,999,13748,.18558047E-3,.6658E-4,0
ASRTU-1 (AO-123),2024-199AY,2026-06-19T13:49:17.893056,15.35704476,.00121311,97.2994,39.2247,304.4970,55.5127,0,U,61781,999,13429,.1819354E-3,.625E-4,0
SAMSAT-IONOSPHERE (RS75S),2024-199BB,2026-06-19T13:33:15.157728,15.57800867,.00059504,97.2935,46.5080,264.2850,95.7728,0,U,61784,999,13793,.52626326E-3,.39178E-3,0
RTU MIREA 1 (RS51S),2024-199BC,2026-06-19T14:00:46.386144,15.61308650,.00056764,97.2924,47.3715,254.9401,105.1229,0,U,61785,999,13484,.58529571E-3,.4984E-3,0
TEVEL2-4,2025-052D,2026-06-19T11:08:38.588064,15.34677450,.00049606,97.3895,66.8595,98.8525,261.3280,0,U,63213,999,7046,.48519551E-3,.16248E-3,0
TEVEL2-5,2025-052E,2026-06-19T05:22:55.427232,15.34496992,.00048787,97.3892,66.5660,100.7080,259.4713,0,U,63214,999,7042,.46766436E-3,.15567E-3,0
TEVEL2-6,2025-052F,2026-06-19T10:22:27.715008,15.34467425,.00047569,97.3899,66.7589,100.9120,259.2659,0,U,63215,999,7045,.47004147E-3,.15632E-3,0
TEVEL2-1,2025-052H,2026-06-19T11:05:23.151264,15.33930416,.0004865,97.3871,66.4107,109.0223,251.1547,0,U,63217,999,7044,.46770142E-3,.15291E-3,0
TEVEL2-3,2025-052J,2026-06-19T10:57:33.185376,15.33986782,.00048346,97.3873,66.4272,109.5080,250.6686,0,U,63218,999,7044,.47447794E-3,.15541E-3,0
TEVEL2-2,2025-052K,2026-06-19T11:05:49.112736,15.33940234,.0004815,97.3874,66.4133,109.7646,250.4117,0,U,63219,999,7044,.47967288E-3,.1569E-3,0
TEVEL2-9,2025-052AD,2026-06-19T10:37:32.489760,15.31954874,.00079758,97.3933,65.7639,124.5542,235.6454,0,U,63237,999,7037,.45436259E-3,.13964E-3,0
TEVEL2-7,2025-052AE,2026-06-19T05:20:46.029408,15.31652594,.00080263,97.3935,65.4597,125.5065,234.6926,0,U,63238,999,7033,.4363994E-3,.13282E-3,0
TEVEL2-8,2025-052AF,2026-06-19T10:14:54.765600,15.31641288,.00080572,97.3936,65.6402,125.3451,234.8545,0,U,63239,999,7036,.41531412E-3,.12631E-3,0
INNOSAT 16 (RS92S7),2025-155C,2026-06-19T13:26:48.425280,15.25476934,.00108249,97.4567,137.6803,167.3375,192.8137,0,U,64878,999,8103,.17963384E-3,.448E-4,0
GEOSCAN 6 (RS92S6),2025-155D,2026-06-19T12:51:30.476160,15.30187995,.00086537,97.4561,139.0966,154.8876,205.2787,0,U,64879,999,8112,.28812137E-3,.8348E-4,0
GEOSCAN 1 (RS92S1),2025-155E,2026-06-19T12:53:43.069920,15.30786082,.00086062,97.4557,139.2482,154.6635,205.5030,0,U,64880,999,8113,.3082221E-3,.9104E-4,0
239ALFEROV (RS61S),2025-155F,2026-06-19T13:39:09.004608,15.32992745,.00083262,97.4558,139.8492,151.8107,208.3587,0,U,64881,999,8117,.36187243E-3,.1147E-3,0
GEOSCAN 2 (RS92S2),2025-155Q,2026-06-19T14:18:08.247456,15.31058123,.00083627,97.4556,139.4606,142.3449,217.8379,0,U,64890,999,8115,.29675885E-3,.8836E-4,0
GEOSCAN 5 (RS92S5),2025-155R,2026-06-19T13:22:38.202240,15.33309095,.00070671,97.4550,139.9761,155.3977,204.7604,0,U,64891,999,8118,.35487448E-3,.11355E-3,0
GEOSCAN 4 (RS92S4),2025-155S,2026-06-19T12:59:31.809696,15.33464003,.00071282,97.4554,140.0090,155.0002,205.1587,0,U,64892,999,8118,.37217294E-3,.11972E-3,0
GEOSCAN 3 (RS92S3),2025-155T,2026-06-19T12:56:13.665120,15.35459525,.00070845,97.4542,140.4433,153.3834,206.7775,0,U,64893,999,8121,.41228703E-3,.14143E-3,0
